[{"OBJECT_NAME":"DUPLEX","OBJECT_ID":"1998-067XS","EPOCH":"2026-03-27T02:39:31.156992","MEAN_MOTION":15.57379758,"ECCENTRICITY":0.00028687,"INCLINATION":51.6307,"RA_OF_ASC_NODE":342.2411,"ARG_OF_PERICENTER":191.814,"MEAN_ANOMALY":168.2785,"EPHEMERIS_TYPE":0,"CLASSIFICATION_TYPE":"U","NORAD_CAT_ID":66906,"ELEMENT_SET_NO":999,"REV_AT_EPOCH":1784,"BSTAR":0.00042022856,"MEAN_MOTION_DOT":0.00030995,"MEAN_MOTION_DDOT":0},{"OBJECT_NAME":"ISS OBJECT XT","OBJECT_ID":"1998-067XT","EPOCH":"2026-03-27T01:29:05.844480","MEAN_MOTION":15.75548676,"ECCENTRICITY":0.00057392,"INCLINATION":51.625,"RA_OF_ASC_NODE":336.6305,"ARG_OF_PERICENTER":192.2616,"MEAN_ANOMALY":167.8244,"EPHEMERIS_TYPE":0,"CLASSIFICATION_TYPE":"U","NORAD_CAT_ID":66907,"ELEMENT_SET_NO":999,"REV_AT_EPOCH":1791,"BSTAR":0.001380013,"MEAN_MOTION_DOT":0.00219962,"MEAN_MOTION_DDOT":0},{"OBJECT_NAME":"ISS OBJECT XU","OBJECT_ID":"1998-067XU","EPOCH":"2026-03-27T01:24:02.046528","MEAN_MOTION":15.75783311,"ECCENTRICITY":0.0005927,"INCLINATION":51.6238,"RA_OF_ASC_NODE":336.6028,"ARG_OF_PERICENTER":191.862,"MEAN_ANOMALY":168.2241,"EPHEMERIS_TYPE":0,"CLASSIFICATION_TYPE":"U","NORAD_CAT_ID":66908,"ELEMENT_SET_NO":999,"REV_AT_EPOCH":1791,"BSTAR":0.0014272028,"MEAN_MOTION_DOT":0.00230149,"MEAN_MOTION_DDOT":0},{"OBJECT_NAME":"SILVERSAT","OBJECT_ID":"1998-067XV","EPOCH":"2026-03-27T01:56:47.679360","MEAN_MOTION":15.80729588,"ECCENTRICITY":0.00067336,"INCLINATION":51.622,"RA_OF_ASC_NODE":335.243,"ARG_OF_PERICENTER":198.1524,"MEAN_ANOMALY":161.9239,"EPHEMERIS_TYPE":0,"CLASSIFICATION_TYPE":"U","NORAD_CAT_ID":66909,"ELEMENT_SET_NO":999,"REV_AT_EPOCH":1793,"BSTAR":0.0015697834,"MEAN_MOTION_DOT":0.00319643,"MEAN_MOTION_DDOT":0},{"OBJECT_NAME":"ISS OBJECT XW","OBJECT_ID":"1998-067XW","EPOCH":"2026-03-27T01:37:05.835360","MEAN_MOTION":15.7419999,"ECCENTRICITY":0.00061614,"INCLINATION":51.6237,"RA_OF_ASC_NODE":336.6606,"ARG_OF_PERICENTER":190.5298,"MEAN_ANOMALY":169.5573,"EPHEMERIS_TYPE":0,"CLASSIFICATION_TYPE":"U","NORAD_CAT_ID":66910,"ELEMENT_SET_NO":999,"REV_AT_EPOCH":1791,"BSTAR":0.0012967865,"MEAN_MOTION_DOT":0.00194306,"MEAN_MOTION_DDOT":0},{"OBJECT_NAME":"ISS OBJECT XX","OBJECT_ID":"1998-067XX","EPOCH":"2026-03-27T02:13:32.671200","MEAN_MOTION":15.868615,"ECCENTRICITY":0.00083895,"INCLINATION":51.6197,"RA_OF_ASC_NODE":333.7874,"ARG_OF_PERICENTER":202.2117,"MEAN_ANOMALY":157.8525,"EPHEMERIS_TYPE":0,"CLASSIFICATION_TYPE":"U","NORAD_CAT_ID":66911,"ELEMENT_SET_NO":999,"REV_AT_EPOCH":1794,"BSTAR":0.0016973803,"MEAN_MOTION_DOT":0.00470858,"MEAN_MOTION_DDOT":0},{"OBJECT_NAME":"ISS OBJECT XY","OBJECT_ID":"1998-067XY","EPOCH":"2026-03-27T01:45:36.311616","MEAN_MOTION":15.67194641,"ECCENTRICITY":0.00041886,"INCLINATION":51.6273,"RA_OF_ASC_NODE":338.9792,"ARG_OF_PERICENTER":189.6514,"MEAN_ANOMALY":170.4402,"EPHEMERIS_TYPE":0,"CLASSIFICATION_TYPE":"U","NORAD_CAT_ID":66912,"ELEMENT_SET_NO":999,"REV_AT_EPOCH":1787,"BSTAR":0.001022182,"MEAN_MOTION_DOT":0.00112875,"MEAN_MOTION_DDOT":0},{"OBJECT_NAME":"KNACKSAT-2","OBJECT_ID":"1998-067XZ","EPOCH":"2026-03-26T23:28:34.821984","MEAN_MOTION":15.53246131,"ECCENTRICITY":0.0009919,"INCLINATION":51.6326,"RA_OF_ASC_NODE":345.8555,"ARG_OF_PERICENTER":248.4821,"MEAN_ANOMALY":111.5112,"EPHEMERIS_TYPE":0,"CLASSIFICATION_TYPE":"U","NORAD_CAT_ID":67683,"ELEMENT_SET_NO":999,"REV_AT_EPOCH":747,"BSTAR":0.00066435,"MEAN_MOTION_DOT":0.0004242,"MEAN_MOTION_DDOT":0},{"OBJECT_NAME":"CORAL","OBJECT_ID":"1998-067YA","EPOCH":"2026-03-27T02:35:05.397504","MEAN_MOTION":15.57249768,"ECCENTRICITY":0.00125695,"INCLINATION":51.6314,"RA_OF_ASC_NODE":344.4708,"ARG_OF_PERICENTER":238.1996,"MEAN_ANOMALY":121.7773,"EPHEMERIS_TYPE":0,"CLASSIFICATION_TYPE":"U","NORAD_CAT_ID":67684,"ELEMENT_SET_NO":999,"REV_AT_EPOCH":750,"BSTAR":0.0012826998,"MEAN_MOTION_DOT":0.00096256,"MEAN_MOTION_DDOT":0},{"OBJECT_NAME":"GXIBA-1","OBJECT_ID":"1998-067YB","EPOCH":"2026-03-26T23:15:05.948640","MEAN_MOTION":15.53770911,"ECCENTRICITY":0.0011841,"INCLINATION":51.6322,"RA_OF_ASC_NODE":345.7931,"ARG_OF_PERICENTER":245.2772,"MEAN_ANOMALY":114.6986,"EPHEMERIS_TYPE":0,"CLASSIFICATION_TYPE":"U","NORAD_CAT_ID":67685,"ELEMENT_SET_NO":999,"REV_AT_EPOCH":747,"BSTAR":0.00071441,"MEAN_MOTION_DOT":0.00046603,"MEAN_MOTION_DDOT":0},{"OBJECT_NAME":"UITMSAT-2","OBJECT_ID":"1998-067YC","EPOCH":"2026-03-27T02:00:46.901952","MEAN_MOTION":15.54689548,"ECCENTRICITY":0.00089667,"INCLINATION":51.6322,"RA_OF_ASC_NODE":345.0642,"ARG_OF_PERICENTER":216.5777,"MEAN_ANOMALY":143.4602,"EPHEMERIS_TYPE":0,"CLASSIFICATION_TYPE":"U","NORAD_CAT_ID":67686,"ELEMENT_SET_NO":999,"REV_AT_EPOCH":749,"BSTAR":0.00090428696,"MEAN_MOTION_DOT":0.00061183,"MEAN_MOTION_DDOT":0},{"OBJECT_NAME":"HMU-SAT2","OBJECT_ID":"1998-067YD","EPOCH":"2026-03-26T23:21:45.635904","MEAN_MOTION":15.53521271,"ECCENTRICITY":0.0008474,"INCLINATION":51.6328,"RA_OF_ASC_NODE":345.8268,"ARG_OF_PERICENTER":219.6205,"MEAN_ANOMALY":140.4167,"EPHEMERIS_TYPE":0,"CLASSIFICATION_TYPE":"U","NORAD_CAT_ID":67687,"ELEMENT_SET_NO":999,"REV_AT_EPOCH":739,"BSTAR":0.00073714,"MEAN_MOTION_DOT":0.00047602,"MEAN_MOTION_DDOT":0},{"OBJECT_NAME":"LEOPARD","OBJECT_ID":"1998-067YE","EPOCH":"2026-03-27T02:09:41.960736","MEAN_MOTION":15.54275853,"ECCENTRICITY":0.00086502,"INCLINATION":51.6328,"RA_OF_ASC_NODE":345.1054,"ARG_OF_PERICENTER":217.3181,"MEAN_ANOMALY":142.721,"EPHEMERIS_TYPE":0,"CLASSIFICATION_TYPE":"U","NORAD_CAT_ID":67688,"ELEMENT_SET_NO":999,"REV_AT_EPOCH":741,"BSTAR":0.00079602331,"MEAN_MOTION_DOT":0.00052925,"MEAN_MOTION_DDOT":0},{"OBJECT_NAME":"CREW DRAGON 12","OBJECT_ID":"2026-031A","EPOCH":"2026-03-27T03:10:20.925696","MEAN_MOTION":15.48575012,"ECCENTRICITY":0.0006239,"INCLINATION":51.6343,"RA_OF_ASC_NODE":346.1324,"ARG_OF_PERICENTER":237.1062,"MEAN_ANOMALY":122.9326,"EPHEMERIS_TYPE":0,"CLASSIFICATION_TYPE":"U","NORAD_CAT_ID":67796,"ELEMENT_SET_NO":999,"REV_AT_EPOCH":55897,"BSTAR":0.00024583004,"MEAN_MOTION_DOT":0.00012923,"MEAN_MOTION_DDOT":0},{"OBJECT_NAME":"PROGRESS-MS 33","OBJECT_ID":"2026-058A","EPOCH":"2026-03-27T03:10:20.925696","MEAN_MOTION":15.48575012,"ECCENTRICITY":0.0006239,"INCLINATION":51.6343,"RA_OF_ASC_NODE":346.1324,"ARG_OF_PERICENTER":237.1062,"MEAN_ANOMALY":122.9326,"EPHEMERIS_TYPE":0,"CLASSIFICATION_TYPE":"U","NORAD_CAT_ID":68319,"ELEMENT_SET_NO":999,"REV_AT_EPOCH":33,"BSTAR":0.00024583004,"MEAN_MOTION_DOT":0.00012923,"MEAN_MOTION_DDOT":0}]
